# last update : 07.09.2023 17:18:48 UTC
JASON-3                 
1 41240U 16002A   23250.07055981 -.00000055  00000+0  27098-4 0  9997
2 41240  66.0402  81.4454 0007474 267.4852  92.5308 12.80930360357254

SARAL                   
1 39086U 13009A   23249.90629926  .00000161  00000+0  75929-4 0  9995
2 39086  98.5499  74.0163 0002867  60.6616 299.4853 14.32254499550385

SENTINEL-3A             
1 41335U 16011A   23250.41893558  .00000154  00000+0  81550-4 0  9992
2 41335  98.6311 316.2663 0001060 107.1278 253.0019 14.26732963393509

SENTINEL-3B             
1 43437U 18039A   23249.90098939  .00000181  00000+0  92678-4 0  9994
2 43437  98.6211 315.8400 0001128  79.1999 280.9309 14.26738254279491

HAIYANG-2B              
1 43655U 18081A   23250.43305880 -.00000006  00000+0  36736-4 0  9999
2 43655  99.3419 257.9647 0001977  82.9630 277.1747 13.79304617245177

CFOSAT                  
1 43662U 18083A   23250.39625499  .00005479  00000+0  28633-3 0  9999
2 43662  97.3953 267.5124 0003057  61.2698 298.8842 15.16281758268891

CRYOSAT 2               
1 36508U 10013A   23249.92348353  .00000283  00000+0  69521-4 0  9993
2 36508  92.0259  32.1129 0004750 140.2286 219.9270 14.51901980710914

SENTINEL-6              
1 46984U 20086A   23249.95716979 -.00000059  00000+0  95172-5 0  9993
2 46984  66.0401  81.6184 0007847 268.3793  91.6323 12.80929564130556

